QIANFAN-25              
1 61558U 24185G   25239.17469668  .00000428  00000+0  25418-3 0  9999
2 61558  88.9748  90.3788 0005520 280.3109  79.7451 14.05768519 54391
QIANFAN-26              
1 61559U 24185H   25239.19023485  .00000220  00000+0  20767-3 0  9997
2 61559  88.9762  91.3739 0005508 358.1405   1.9740 13.77729562 53866
QIANFAN-27              
1 61560U 24185J   25239.12875535  .00000426  00000+0  16859-3 0  9998
2 61560  88.9755  89.5758 0006006 289.8638  70.1908 14.27141536 54817
QIANFAN-28              
1 61561U 24185K   25239.22884421  .00000702  00000+0  27892-3 0  9990
2 61561  88.9771  89.5594 0005027 291.8385  68.2275 14.27715746 54835
QIANFAN-29              
1 61562U 24185L   25239.12379839  .00000147  00000+0  20964-3 0  9998
2 61562  88.9756  92.4476 0010649  13.1037 347.0389 13.50963146 53260
QIANFAN-30              
1 61563U 24185M   25239.16544547  .00000136  00000+0  19487-3 0  9999
2 61563  88.9760  91.9257 0007608   1.6701 358.4473 13.49936272 53558
QIANFAN-31              
1 61564U 24185N   25239.17559930  .00000129  00000+0  16244-3 0  9993
2 61564  88.9745  91.8970 0007233   0.5144 359.6017 13.57909753 53567
QIANFAN-32              
1 61565U 24185P   25239.19358127  .00000142  00000+0  20210-3 0  9994
2 61565  88.9804  92.0245 0010242  22.7554 337.4049 13.50689209 53526
